IRIDIUM 144             
1 43249U 18030A   25072.61883614 -.00000025  00000+0 -16096-4 0  9991
2 43249  86.3954 122.9784 0002114  90.5445 269.5993 14.34217504364127
IRIDIUM 149             
1 43250U 18030B   25072.62517836  .00000127  00000+0  38415-4 0  9994
2 43250  86.3951 122.9485 0002079  93.3202 266.8232 14.34217964364144
IRIDIUM 157             
1 43251U 18030C   25072.57444060  .00000484  00000+0  16570-3 0  9990
2 43251  86.3953 123.0128 0002369 100.8548 259.2915 14.34221699364113
IRIDIUM 140             
1 43252U 18030D   25072.59346537 -.00000068  00000+0 -31523-4 0  9999
2 43252  86.3956 123.0184 0002121  89.6213 270.5226 14.34217569364176
IRIDIUM 145             
1 43253U 18030E   25072.58078830  .00000512  00000+0  17571-3 0  9995
2 43253  86.3953 122.9969 0001947  86.1907 273.9511 14.34214560364105
IRIDIUM 146             
1 43254U 18030F   25072.56175238  .00000444  00000+0  15146-3 0  9994
2 43254  86.3953 123.0188 0001983  86.0697 274.0725 14.34216926364114
IRIDIUM 148             
1 43255U 18030G   25072.39050239  .00000187  00000+0  59795-4 0  9992
2 43255  86.3956 123.1265 0002041  96.9312 263.2116 14.34217516364126
IRIDIUM 142             
1 43256U 18030H   25072.56809446  .00000255  00000+0  84060-4 0  9993
2 43256  86.3951 122.9579 0001833  90.4243 269.7163 14.34218089364115
